ATLAS CENTAUR R/B       
1 06155U 72065B   25357.20204438  .00001111  00000+0  15558-3 0  9992
2 06155  35.0025  33.9111 0033220  86.7972 273.6528 14.77435148829940
SL-8 R/B                
1 08459U 75112B   25357.19528845  .00000342  00000+0  12129-3 0  9992
2 08459  74.0591 159.6260 0016685 269.9133  90.0109 14.38152563620872
SL-3 R/B                
1 10114U 77057B   25357.06691409  .00014016  00000+0  31769-3 0  9990
2 10114  97.5688 160.7989 0007159 191.5011 168.6074 15.43183996656505
SEASAT 1                
1 10967U 78064A   25356.85125866  .00000277  00000+0  11602-3 0  9998
2 10967 108.0135 324.2484 0001381 254.2230 105.8763 14.46071447495401
SL-14 R/B               
1 11267U 79011B   25356.98356181  .00000625  00000+0  59381-4 0  9999
2 11267  82.5234 169.3285 0015040 317.9383  42.0680 14.91781672517347
SL-8 R/B                
1 11574U 79089B   25357.10192353  .00000252  00000+0  84154-4 0  9991
2 11574  74.0679 232.8011 0014653  62.8353 297.4295 14.42290129425065
SL-14 R/B               
1 11672U 80005B   25357.08050986  .00000550  00000+0  53196-4 0  9995
2 11672  82.5140  19.8914 0017189  62.0308 298.2648 14.90803252465071
SL-8 R/B                
1 12139U 81003B   25356.49730874  .00017017  00000+0  45018-3 0  9997
2 12139  82.9325   1.2235 0278269  86.7267 276.5753 15.07306314303034
SL-3 R/B                
1 12465U 81046B   25357.02748602  .00011930  00000+0  29840-3 0  9997
2 12465  81.2318  21.6285 0018214 286.8945  73.0299 15.39807713426629
SL-3 R/B                
1 12904U 81103B   25357.12500759  .00006965  00000+0  31835-3 0  9998
2 12904  81.1606 303.1899 0012583 176.0748 184.0584 15.20349740961590
SL-3 R/B                
1 13068U 82013B   25357.10261791  .00004767  00000+0  21111-3 0  9993
2 13068  81.1747 250.4801 0024106  77.6898 282.7030 15.21172970392704
SL-3 R/B                
1 13154U 82039B   25357.17865003  .00003112  00000+0  19045-3 0  9996
2 13154  81.1717 304.0870 0029404 216.7668 143.1542 15.09581184370099
